{"type": "FeatureCollection", "features": [ {"type": "Feature", "properties": {"norad_id": 34572, "name": "COSMOS 2251 DEB", "group": "cosmos-2251-debris", "lat": 34.00896695134073, "lon": 99.01260345245758, "alt_km": 745.8186464084902, "timestamp": "2025-12-27T10:28:59.188810+00:00", "meta": {"OBJECT_NAME": "COSMOS 2251 DEB", "OBJECT_ID": "1993-036VJ", "EPOCH": "2025-12-24T06:18:12.267936", "MEAN_MOTION": 14.50228885, "ECCENTRICITY": 0.00614008, "INCLINATION": 74.0107, "RA_OF_ASC_NODE": 93.8275, "ARG_OF_PERICENTER": 165.5586, "MEAN_ANOMALY": 225.3704, "EPHEMERIS_TYPE": 0, "CLASSIFICATION_TYPE": "U", "NORAD_CAT_ID": 34572, "ELEMENT_SET_NO": 999, "REV_AT_EPOCH": 87545, "BSTAR": 0.0025670587, "MEAN_MOTION_DOT": 0.00010221, "MEAN_MOTION_DDOT": 0}, "tle": {"line1": "1 34572U 93036VJ  25358.26264199  .00010221  00000+0  25671-2 0  9992", "line2": "2 34572  74.0107  93.8275 0061400 165.5586 225.3704 14.50228885875458"}}, "geometry": {"type": "Point", "coordinates": [99.01260345245758, 34.00896695134073]}}, {"type": "Feature", "properties": {"norad_id": 34574, "name": "COSMOS 2251 DEB", "group": "cosmos-2251-debris", "lat": -66.29222261983413, "lon": -25.912963774534507, "alt_km": 676.0507146427317, "timestamp": "2025-12-27T10:28:59.188820+00:00", "meta": {"OBJECT_NAME": "COSMOS 2251 DEB", "OBJECT_ID": "1993-036VL", "EPOCH": "2025-12-27T02:55:25.997088", "MEAN_MOTION": 14.7076727, "ECCENTRICITY": 0.0067336, "INCLINATION": 74.0696, "RA_OF_ASC_NODE": 15.2706, "ARG_OF_PERICENTER": 31.766, "MEAN_ANOMALY": 29.8208, "EPHEMERIS_TYPE": 0, "CLASSIFICATION_TYPE": "U", "NORAD_CAT_ID": 34574, "ELEMENT_SET_NO": 999, "REV_AT_EPOCH": 88990, "BSTAR": 0.001256, "MEAN_MOTION_DOT": 7.916e-05, "MEAN_MOTION_DDOT": 0}, "tle": {"line1": "1 34574U 93036VL  25361.12182867  .00007916  00000+0  12560-2 0  9994", "line2": "2 34574  74.0696  15.2706 0067336  31.7660  29.8208 14.70767270889900"}}, "geometry": {"type": "Point", "coordinates": [-25.912963774534507, -66.29222261983413]}}, {"type": "Feature", "properties": {"norad_id": 34576, "name": "COSMOS 2251 DEB", "group": "cosmos-2251-debris", "lat": 5.33064367575943, "lon": -71.17827755376517, "alt_km": 707.9894575454327, "timestamp": "2025-12-27T10:28:59.188830+00:00", "meta": {"OBJECT_NAME": "COSMOS 2251 DEB", "OBJECT_ID": "1993-036VN", "EPOCH": "2025-12-26T13:57:01.448064", "MEAN_MOTION": 14.55523592, "ECCENTRICITY": 0.0008281, "INCLINATION": 74.034, "RA_OF_ASC_NODE": 111.9728, "ARG_OF_PERICENTER": 250.7491, "MEAN_ANOMALY": 122.631, "EPHEMERIS_TYPE": 0, "CLASSIFICATION_TYPE": "U", "NORAD_CAT_ID": 34576, "ELEMENT_SET_NO": 999, "REV_AT_EPOCH": 88668, "BSTAR": 0.00095142, "MEAN_MOTION_DOT": 4.119e-05, "MEAN_MOTION_DDOT": 0}, "tle": {"line1": "1 34576U 93036VN  25360.58126676  .00004119  00000+0  95142-3 0  9991", "line2": "2 34576  74.0340 111.9728 0008281 250.7491 122.6310 14.55523592886683"}}, "geometry": {"type": "Point", "coordinates": [-71.17827755376517, 5.33064367575943]}}, {"type": "Feature", "properties": {"norad_id": 34579, "name": "COSMOS 2251 DEB", "group": "cosmos-2251-debris", "lat": -34.39507518916875, "lon": 27.820327474651148, "alt_km": 733.3880992082777, "timestamp": "2025-12-27T10:28:59.188840+00:00", "meta": {"OBJECT_NAME": "COSMOS 2251 DEB", "OBJECT_ID": "1993-036VR", "EPOCH": "2025-12-27T00:05:26.827872", "MEAN_MOTION": 14.45346997, "ECCENTRICITY": 0.0027471, "INCLINATION": 74.0512, "RA_OF_ASC_NODE": 197.3367, "ARG_OF_PERICENTER": 263.8354, "MEAN_ANOMALY": 220.1151, "EPHEMERIS_TYPE": 0, "CLASSIFICATION_TYPE": "U", "NORAD_CAT_ID": 34579, "ELEMENT_SET_NO": 999, "REV_AT_EPOCH": 88380, "BSTAR": 0.00043736, "MEAN_MOTION_DOT": 1.517e-05, "MEAN_MOTION_DDOT": 0}, "tle": {"line1": "1 34579U 93036VR  25361.00378273  .00001517  00000+0  43736-3 0  9995", "line2": "2 34579  74.0512 197.3367 0027471 263.8354 220.1151 14.45346997883808"}}, "geometry": {"type": "Point", "coordinates": [27.820327474651148, -34.39507518916875]}}, {"type": "Feature", "properties": {"norad_id": 34582, "name": "COSMOS 2251 DEB", "group": "cosmos-2251-debris", "lat": 48.17304972480668, "lon": -96.27936997253077, "alt_km": 724.5735834940633, "timestamp": "2025-12-27T10:28:59.188850+00:00", "meta": {"OBJECT_NAME": "COSMOS 2251 DEB", "OBJECT_ID": "1993-036VU", "EPOCH": "2025-12-27T01:55:59.865600", "MEAN_MOTION": 14.43394938, "ECCENTRICITY": 0.0048599, "INCLINATION": 74.0188, "RA_OF_ASC_NODE": 245.707, "ARG_OF_PERICENTER": 352.8188, "MEAN_ANOMALY": 7.2266, "EPHEMERIS_TYPE": 0, "CLASSIFICATION_TYPE": "U", "NORAD_CAT_ID": 34582, "ELEMENT_SET_NO": 999, "REV_AT_EPOCH": 88154, "BSTAR": 0.00073023, "MEAN_MOTION_DOT": 2.474e-05, "MEAN_MOTION_DDOT": 0}, "tle": {"line1": "1 34582U 93036VU  25361.08055400  .00002474  00000+0  73023-3 0  9996", "line2": "2 34582  74.0188 245.7070 0048599 352.8188   7.2266 14.43394938881544"}}, "geometry": {"type": "Point", "coordinates": [-96.27936997253077, 48.17304972480668]}}, {"type": "Feature", "properties": {"norad_id": 34588, "name": "COSMOS 2251 DEB", "group": "cosmos-2251-debris", "lat": 34.09369163184989, "lon": -107.81035529618279, "alt_km": 752.3536946768845, "timestamp": "2025-12-27T10:28:59.188860+00:00", "meta": {"OBJECT_NAME": "COSMOS 2251 DEB", "OBJECT_ID": "1993-036WA", "EPOCH": "2025-12-27T02:32:15.955008", "MEAN_MOTION": 14.42062969, "ECCENTRICITY": 0.0019306, "INCLINATION": 74.0422, "RA_OF_ASC_NODE": 241.6352, "ARG_OF_PERICENTER": 292.8584, "MEAN_ANOMALY": 184.7219, "EPHEMERIS_TYPE": 0, "CLASSIFICATION_TYPE": "U", "NORAD_CAT_ID": 34588, "ELEMENT_SET_NO": 999, "REV_AT_EPOCH": 88157, "BSTAR": 0.00045457, "MEAN_MOTION_DOT": 1.47e-05, "MEAN_MOTION_DDOT": 0}, "tle": {"line1": "1 34588U 93036WA  25361.10574022  .00001470  00000+0  45457-3 0  9996", "line2": "2 34588  74.0422 241.6352 0019306 292.8584 184.7219 14.42062969881573"}}, "geometry": {"type": "Point", "coordinates": [-107.81035529618279, 34.09369163184989]}}, {"type": "Feature", "properties": {"norad_id": 34589, "name": "COSMOS 2251 DEB", "group": "cosmos-2251-debris", "lat": 19.55308029345224, "lon": -154.88919644103152, "alt_km": 1125.0936174138824, "timestamp": "2025-12-27T10:28:59.188869+00:00", "meta": {"OBJECT_NAME": "COSMOS 2251 DEB", "OBJECT_ID": "1993-036WB", "EPOCH": "2025-12-26T09:31:57.433728", "MEAN_MOTION": 13.86070784, "ECCENTRICITY": 0.0252543, "INCLINATION": 73.925, "RA_OF_ASC_NODE": 32.7594, "ARG_OF_PERICENTER": 333.3886, "MEAN_ANOMALY": 41.0436, "EPHEMERIS_TYPE": 0, "CLASSIFICATION_TYPE": "U", "NORAD_CAT_ID": 34589, "ELEMENT_SET_NO": 999, "REV_AT_EPOCH": 84901, "BSTAR": 0.00051768, "MEAN_MOTION_DOT": 7.41e-06, "MEAN_MOTION_DDOT": 0}, "tle": {"line1": "1 34589U 93036WB  25360.39719252  .00000741  00000+0  51768-3 0  9995", "line2": "2 34589  73.9250  32.7594 0252543 333.3886  41.0436 13.86070784849016"}}, "geometry": {"type": "Point", "coordinates": [-154.88919644103152, 19.55308029345224]}}, {"type": "Feature", "properties": {"norad_id": 34590, "name": "COSMOS 2251 DEB", "group": "cosmos-2251-debris", "lat": -0.39061931555750184, "lon": 114.86133356944642, "alt_km": 736.5685624210737, "timestamp": "2025-12-27T10:28:59.188879+00:00", "meta": {"OBJECT_NAME": "COSMOS 2251 DEB", "OBJECT_ID": "1993-036WC", "EPOCH": "2025-12-25T21:36:51.910848", "MEAN_MOTION": 14.5484121, "ECCENTRICITY": 0.0068093, "INCLINATION": 74.0446, "RA_OF_ASC_NODE": 297.6543, "ARG_OF_PERICENTER": 63.4192, "MEAN_ANOMALY": 353.7708, "EPHEMERIS_TYPE": 0, "CLASSIFICATION_TYPE": "U", "NORAD_CAT_ID": 34590, "ELEMENT_SET_NO": 999, "REV_AT_EPOCH": 89312, "BSTAR": 0.00014464, "MEAN_MOTION_DOT": 6.1e-06, "MEAN_MOTION_DDOT": 0}, "tle": {"line1": "1 34590U 93036WC  25359.90060082  .00000610  00000+0  14464-3 0  9999", "line2": "2 34590  74.0446 297.6543 0068093  63.4192 353.7708 14.54841210893121"}}, "geometry": {"type": "Point", "coordinates": [114.86133356944642, -0.39061931555750184]}}, {"type": "Feature", "properties": {"norad_id": 34609, "name": "COSMOS 2251 DEB", "group": "cosmos-2251-debris", "lat": 5.585132231234227, "lon": 81.49874990742606, "alt_km": 781.7741162759503, "timestamp": "2025-12-27T10:28:59.188889+00:00", "meta": {"OBJECT_NAME": "COSMOS 2251 DEB", "OBJECT_ID": "1993-036WE", "EPOCH": "2025-12-24T00:34:30.192384", "MEAN_MOTION": 14.2183063, "ECCENTRICITY": 0.01457677, "INCLINATION": 73.7329, "RA_OF_ASC_NODE": 86.098, "ARG_OF_PERICENTER": 303.8546, "MEAN_ANOMALY": 238.3232, "EPHEMERIS_TYPE": 0, "CLASSIFICATION_TYPE": "U", "NORAD_CAT_ID": 34609, "ELEMENT_SET_NO": 999, "REV_AT_EPOCH": 86792, "BSTAR": 0.00072342659, "MEAN_MOTION_DOT": 1.747e-05, "MEAN_MOTION_DDOT": 0}, "tle": {"line1": "1 34609U 93036WE  25358.02396056  .00001747  00000+0  72343-3 0  9997", "line2": "2 34609  73.7329  86.0980 0145767 303.8546 238.3232 14.21830630867928"}}, "geometry": {"type": "Point", "coordinates": [81.49874990742606, 5.585132231234227]}}, {"type": "Feature", "properties": {"norad_id": 34610, "name": "COSMOS 2251 DEB", "group": "cosmos-2251-debris", "lat": 61.81930247328586, "lon": 24.204036459163017, "alt_km": 904.7430873176199, "timestamp": "2025-12-27T10:28:59.188899+00:00", "meta": {"OBJECT_NAME": "COSMOS 2251 DEB", "OBJECT_ID": "1993-036WF", "EPOCH": "2025-12-27T01:25:28.924320", "MEAN_MOTION": 14.07155032, "ECCENTRICITY": 0.0180832, "INCLINATION": 74.0173, "RA_OF_ASC_NODE": 237.2055, "ARG_OF_PERICENTER": 4.5515, "MEAN_ANOMALY": 355.7212, "EPHEMERIS_TYPE": 0, "CLASSIFICATION_TYPE": "U", "NORAD_CAT_ID": 34610, "ELEMENT_SET_NO": 999, "REV_AT_EPOCH": 85761, "BSTAR": 0.0021726, "MEAN_MOTION_DOT": 4.199e-05, "MEAN_MOTION_DDOT": 0}, "tle": {"line1": "1 34610U 93036WF  25361.05936255  .00004199  00000+0  21726-2 0  9999", "line2": "2 34610  74.0173 237.2055 0180832   4.5515 355.7212 14.07155032857614"}}, "geometry": {"type": "Point", "coordinates": [24.204036459163017, 61.81930247328586]}}]}